NORAD_CAT_ID,OBJECT_NAME,OBJECT_TYPE,EPOCH,MEAN_MOTION,ECCENTRICITY,INCLINATION,RA_OF_ASC_NODE,ARG_OF_PERICENTER,MEAN_ANOMALY,BSTAR,MEAN_MOTION_DOT,MEAN_MOTION_DDOT,TLE_LINE0,TLE_LINE1,TLE_LINE2,SEMIMAJOR_AXIS,PERIOD,APOGEE,PERIGEE,DECAYED
52566.0,STARLINK-3938,PAYLOAD,2024-08-11 02:39:51,15.08808589,0.0001388,53.2156,197.9971,106.2804,253.8341,0.00055802,8.597e-05,0.0,0 STARLINK-3938,1 52566U 22051AK  24224.11101000  .00008597  00000-0  55802-3 0  9994,2 52566  53.2156 197.9971 0001388 106.2804 253.8341 15.08808589124557,6917.976,95.44,540.802,538.881,0.0
52566.0,STARLINK-3938,PAYLOAD,2024-08-11 07:25:59,15.0885101,0.0001396,53.2163,197.1026,83.1864,276.9286,0.00018195,2.61e-05,0.0,0 STARLINK-3938,1 52566U 22051AK  24224.30971556  .00002610  00000-0  18195-3 0  9990,2 52566  53.2163 197.1026 0001396  83.1864 276.9286 15.08851010124580,6917.847,95.437,540.677,538.746,0.0
52566.0,STARLINK-3938,PAYLOAD,2024-08-11 15:22:56,15.08833109,0.000184,53.2163,195.6188,87.0109,273.1094,7.3234e-05,8.77e-06,0.0,0 STARLINK-3938,1 52566U 22051AK  24224.64093225  .00000877  00000-0  73234-4 0  9994,2 52566  53.2163 195.6188 0001840  87.0109 273.1094 15.08833109124632,6917.901,95.438,541.039,538.494,0.0
52566.0,STARLINK-3938,PAYLOAD,2024-08-11 21:44:28,15.08834882,0.0001832,53.2163,194.4262,85.3671,274.753,8.9052e-05,1.129e-05,0.0,0 STARLINK-3938,1 52566U 22051AK  24224.90588997  .00001129  00000-0  89052-4 0  9994,2 52566  53.2163 194.4262 0001832  85.3671 274.7530 15.08834882124606,6917.896,95.438,541.028,538.494,0.0
52566.0,STARLINK-3938,PAYLOAD,2024-08-12 04:06:00,15.08844505,0.00017,53.2157,193.2352,97.006,263.1126,0.00018498,2.657e-05,0.0,0 STARLINK-3938,1 52566U 22051AK  24225.17084405  .00002657  00000-0  18498-3 0  9991,2 52566  53.2157 193.2352 0001700  97.0060 263.1126 15.08844505124710,6917.867,95.437,540.908,538.556,0.0
52566.0,STARLINK-3938,PAYLOAD,2024-08-12 21:35:14,15.08859005,0.0001713,53.2156,189.964,100.5916,259.5269,0.0003356,5.06e-05,0.0,0 STARLINK-3938,1 52566U 22051AK  24225.89947670  .00005060  00000-0  33560-3 0  9990,2 52566  53.2156 189.9640 0001713 100.5916 259.5269 15.08859005124757,6917.822,95.436,540.872,538.502,0.0
52566.0,STARLINK-3938,PAYLOAD,2024-08-13 03:56:47,15.08857199,0.000149,53.2144,188.7751,106.3786,253.737,0.00034881,5.27e-05,0.0,0 STARLINK-3938,1 52566U 22051AK  24226.16443401  .00005270  00000-0  34881-3 0  9994,2 52566  53.2144 188.7751 0001490 106.3786 253.7370 15.08857199124790,6917.828,95.436,540.724,538.662,0.0
52566.0,STARLINK-3938,PAYLOAD,2024-08-14 03:47:37,15.08809197,0.0001524,53.213,184.3166,79.9237,280.1927,-0.00012493,-2.274e-05,0.0,0 STARLINK-3938,1 52566U 22051AK  24227.15806762 -.00002274  00000-0 -12493-3 0  9995,2 52566  53.2130 184.3166 0001524  79.9237 280.1927 15.08809197125014,6917.975,95.44,540.894,538.785,0.0
52566.0,STARLINK-3938,PAYLOAD,2024-08-14 06:58:23,15.08812716,0.0001576,53.2143,183.7203,84.3162,275.8009,0.00020105,2.911e-05,0.0,0 STARLINK-3938,1 52566U 22051AK  24227.29055063  .00002911  00000-0  20105-3 0  9995,2 52566  53.2143 183.7203 0001576  84.3162 275.8009 15.08812716124963,6917.964,95.439,540.919,538.739,0.0
52566.0,STARLINK-3938,PAYLOAD,2024-08-15 03:38:24,15.08859356,0.0001446,53.2146,179.8538,88.9746,271.1412,0.00088912,0.00013898,0.0,0 STARLINK-3938,1 52566U 22051AK  24228.15166888  .00013898  00000-0  88912-3 0  9995,2 52566  53.2146 179.8538 0001446  88.9746 271.1412 15.08859356125168,6917.821,95.436,540.687,538.686,0.0
52566.0,STARLINK-3938,PAYLOAD,2024-08-16 03:29:09,15.08874681,0.0001522,53.2147,175.3934,90.7071,269.4095,0.00050531,7.771e-05,0.0,0 STARLINK-3938,1 52566U 22051AK  24229.14525276  .00007771  00000-0  50531-3 0  9994,2 52566  53.2147 175.3934 0001522  90.7071 269.4095 15.08874681125319,6917.774,95.435,540.692,538.586,0.0
52566.0,STARLINK-3938,PAYLOAD,2024-08-16 20:58:23,15.0886959,0.000142,53.2141,172.1228,92.0863,268.0292,0.00028038,4.181e-05,0.0,0 STARLINK-3938,1 52566U 22051AK  24229.87387938  .00004181  00000-0  28038-3 0  9994,2 52566  53.2141 172.1228 0001420  92.0863 268.0292 15.08869590125424,6917.79,95.436,540.637,538.673,0.0
52566.0,STARLINK-3938,PAYLOAD,2024-08-17 01:44:32,15.08889165,0.0001101,53.2149,171.2305,86.314,273.7978,0.0008279,0.0001293,0.0,0 STARLINK-3938,1 52566U 22051AK  24230.07259325  .00012930  00000-0  82790-3 0  9992,2 52566  53.2149 171.2305 0001101  86.3140 273.7978 15.08889165125455,6917.73,95.434,540.357,538.833,0.0
52566.0,STARLINK-3938,PAYLOAD,2024-08-18 04:46:06,15.08838512,0.0001593,53.2164,166.1779,94.9939,265.1235,9.3677e-06,-1.39e-06,0.0,0 STARLINK-3938,1 52566U 22051AK  24231.19868838 -.00000139  00000-0  93677-5 0  9998,2 52566  53.2164 166.1779 0001593  94.9939 265.1235 15.08838512125626,6917.885,95.438,540.852,538.648,0.0
52566.0,STARLINK-3938,PAYLOAD,2024-08-18 22:15:21,15.08830852,0.0001533,53.2165,162.9037,87.5175,272.5993,8.925e-05,1.132e-05,0.0,0 STARLINK-3938,1 52566U 22051AK  24231.92733734  .00001132  00000-0  89250-4 0  9999,2 52566  53.2165 162.9037 0001533  87.5175 272.5993 15.08830852125668,6917.908,95.438,540.834,538.713,0.0
52566.0,STARLINK-3938,PAYLOAD,2024-08-19 04:36:54,15.08837475,0.0001362,53.2158,161.7168,95.1361,264.9787,0.00030707,4.602e-05,0.0,0 STARLINK-3938,1 52566U 22051AK  24232.19229683  .00004602  00000-0  30707-3 0  9999,2 52566  53.2158 161.7168 0001362  95.1361 264.9787 15.08837475125770,6917.888,95.438,540.695,538.811,0.0
52566.0,STARLINK-3938,PAYLOAD,2024-08-19 12:33:50,15.08838356,0.0001412,53.2158,160.2315,83.859,276.2563,0.00037675,5.713e-05,0.0,0 STARLINK-3938,1 52566U 22051AK  24232.52349962  .00005713  00000-0  37675-3 0  9994,2 52566  53.2158 160.2315 0001412  83.8590 276.2563 15.08838356125757,6917.885,95.438,540.727,538.774,0.0
52566.0,STARLINK-3938,PAYLOAD,2024-08-20 04:27:41,15.08855994,0.000144,53.2159,157.2558,92.4644,267.6513,0.00070248,0.00010915,0.0,0 STARLINK-3938,1 52566U 22051AK  24233.18589600  .00010915  00000-0  70248-3 0  9995,2 52566  53.2159 157.2558 0001440  92.4644 267.6513 15.08855994125857,6917.832,95.437,540.693,538.7,0.0
52566.0,STARLINK-3938,PAYLOAD,2024-08-21 04:18:28,15.08856676,0.0001378,53.2163,152.7915,94.4847,265.6303,0.00037737,5.726e-05,0.0,0 STARLINK-3938,1 52566U 22051AK  24234.17949184  .00005726  00000-0  37737-3 0  9992,2 52566  53.2163 152.7915 0001378  94.4847 265.6303 15.08856676126074,6917.829,95.436,540.648,538.741,0.0
52566.0,STARLINK-3938,PAYLOAD,2024-08-21 18:36:56,15.08838777,0.0001394,53.2156,150.1163,108.3158,251.7986,5.3103e-06,-2.03e-06,0.0,0 STARLINK-3938,1 52566U 22051AK  24234.77565581 -.00000203  00000-0  53103-5 0  9996,2 52566  53.2156 150.1163 0001394 108.3158 251.7986 15.08838777126098,6917.884,95.438,540.713,538.785,0.0
52566.0,STARLINK-3938,PAYLOAD,2024-08-21 23:23:05,15.0884419,0.0001458,53.2158,149.2254,106.3167,253.7986,0.00016566,2.35e-05,0.0,0 STARLINK-3938,1 52566U 22051AK  24234.97437479  .00002350  00000-0  16566-3 0  9996,2 52566  53.2158 149.2254 0001458 106.3167 253.7986 15.08844190126198,6917.868,95.437,540.741,538.724,0.0
